NEW_GUESS
1 57487U 23109G   24055.15998843  .00000000  00000-0  00000-0 0    02
2 57487   5.0086 130.1035 0000066 176.4904  78.3609 15.21197022   157